{"type": "FeatureCollection", "features": [{"type": "Feature", "properties": {"norad_id": 36828, "name": "BEIDOU-2 IGSO-1 (C06)", "group": "beidou", "lat": -40.86196122096262, "lon": 23.018908373720713, "alt_km": 35584.8502710409, "timestamp": "2025-12-27T12:55:14.770223+00:00", "meta": {"OBJECT_NAME": "BEIDOU-2 IGSO-1 (C06)", "OBJECT_ID": "2010-036A", "EPOCH": "2025-12-25T21:06:51.904224", "MEAN_MOTION": 1.00272533, "ECCENTRICITY": 0.00515074, "INCLINATION": 54.2892, "RA_OF_ASC_NODE": 164.5291, "ARG_OF_PERICENTER": 215.7944, "MEAN_ANOMALY": 138.9488, "EPHEMERIS_TYPE": 0, "CLASSIFICATION_TYPE": "U", "NORAD_CAT_ID": 36828, "ELEMENT_SET_NO": 999, "REV_AT_EPOCH": 5635, "BSTAR": 0, "MEAN_MOTION_DOT": -5.2e-07, "MEAN_MOTION_DDOT": 0}, "tle": {"line1": "1 36828U 10036A   25359.87976741 -.00000052  00000+0  00000+0 0  9996", "line2": "2 36828  54.2892 164.5291 0051507 215.7944 138.9488  1.00272533 56350"}}, "geometry": {"type": "Point", "coordinates": [23.018908373720713, -40.86196122096262]}}, {"type": "Feature", "properties": {"norad_id": 37210, "name": "BEIDOU-2 G4 (C04)", "group": "beidou", "lat": 1.13132237781155, "lon": 90.10962674070797, "alt_km": 35830.32224381426, "timestamp": "2025-12-27T12:55:14.770247+00:00", "meta": {"OBJECT_NAME": "BEIDOU-2 G4 (C04)", "OBJECT_ID": "2010-057A", "EPOCH": "2025-12-27T05:12:12.626784", "MEAN_MOTION": 1.0027119, "ECCENTRICITY": 0.00105047, "INCLINATION": 3.2181, "RA_OF_ASC_NODE": 69.8831, "ARG_OF_PERICENTER": 194.1703, "MEAN_ANOMALY": 70.0296, "EPHEMERIS_TYPE": 0, "CLASSIFICATION_TYPE": "U", "NORAD_CAT_ID": 37210, "ELEMENT_SET_NO": 999, "REV_AT_EPOCH": 5556, "BSTAR": 0, "MEAN_MOTION_DOT": -9.1e-07, "MEAN_MOTION_DDOT": 0}, "tle": {"line1": "1 37210U 10057A   25361.21681281 -.00000091  00000+0  00000+0 0  9991", "line2": "2 37210   3.2181  69.8831 0010504 194.1703  70.0296  1.00271190 55566"}}, "geometry": {"type": "Point", "coordinates": [90.10962674070797, 1.13132237781155]}}, {"type": "Feature", "properties": {"norad_id": 37256, "name": "BEIDOU-2 IGSO-2 (C07)", "group": "beidou", "lat": 38.1354586237509, "lon": 48.76303798335405, "alt_km": 35785.72670885445, "timestamp": "2025-12-27T12:55:14.770262+00:00", "meta": {"OBJECT_NAME": "BEIDOU-2 IGSO-2 (C07)", "OBJECT_ID": "2010-068A", "EPOCH": "2025-12-26T15:56:02.027040", "MEAN_MOTION": 1.00281973, "ECCENTRICITY": 0.0048288, "INCLINATION": 47.8603, "RA_OF_ASC_NODE": 273.9787, "ARG_OF_PERICENTER": 215.9223, "MEAN_ANOMALY": 312.6243, "EPHEMERIS_TYPE": 0, "CLASSIFICATION_TYPE": "U", "NORAD_CAT_ID": 37256, "ELEMENT_SET_NO": 999, "REV_AT_EPOCH": 5506, "BSTAR": 0, "MEAN_MOTION_DOT": -2.02e-06, "MEAN_MOTION_DDOT": 0}, "tle": {"line1": "1 37256U 10068A   25360.66391235 -.00000202  00000+0  00000+0 0  9992", "line2": "2 37256  47.8603 273.9787 0048288 215.9223 312.6243  1.00281973 55068"}}, "geometry": {"type": "Point", "coordinates": [48.76303798335405, 38.1354586237509]}}, {"type": "Feature", "properties": {"norad_id": 37384, "name": "BEIDOU-2 IGSO-3 (C08)", "group": "beidou", "lat": -4.007826136951445, "lon": 39.6836448785763, "alt_km": 35933.09379720244, "timestamp": "2025-12-27T12:55:14.770276+00:00", "meta": {"OBJECT_NAME": "BEIDOU-2 IGSO-3 (C08)", "OBJECT_ID": "2011-013A", "EPOCH": "2025-12-26T18:04:14.277792", "MEAN_MOTION": 1.00267391, "ECCENTRICITY": 0.00351191, "INCLINATION": 62.1613, "RA_OF_ASC_NODE": 41.7837, "ARG_OF_PERICENTER": 187.8187, "MEAN_ANOMALY": 244.1436, "EPHEMERIS_TYPE": 0, "CLASSIFICATION_TYPE": "U", "NORAD_CAT_ID": 37384, "ELEMENT_SET_NO": 999, "REV_AT_EPOCH": 5393, "BSTAR": 0, "MEAN_MOTION_DOT": -1.71e-06, "MEAN_MOTION_DDOT": 0}, "tle": {"line1": "1 37384U 11013A   25360.75294303 -.00000171  00000+0  00000+0 0  9998", "line2": "2 37384  62.1613  41.7837 0035119 187.8187 244.1436  1.00267391 53938"}}, "geometry": {"type": "Point", "coordinates": [39.6836448785763, -4.007826136951445]}}, {"type": "Feature", "properties": {"norad_id": 37763, "name": "BEIDOU-2 IGSO-4 (C09)", "group": "beidou", "lat": -29.586620256393335, "lon": 11.05365186666406, "alt_km": 35174.33794344924, "timestamp": "2025-12-27T12:55:14.770288+00:00", "meta": {"OBJECT_NAME": "BEIDOU-2 IGSO-4 (C09)", "OBJECT_ID": "2011-038A", "EPOCH": "2025-12-26T23:21:51.633792", "MEAN_MOTION": 1.00276208, "ECCENTRICITY": 0.01496647, "INCLINATION": 54.5847, "RA_OF_ASC_NODE": 167.22, "ARG_OF_PERICENTER": 230.2504, "MEAN_ANOMALY": 143.4727, "EPHEMERIS_TYPE": 0, "CLASSIFICATION_TYPE": "U", "NORAD_CAT_ID": 37763, "ELEMENT_SET_NO": 999, "REV_AT_EPOCH": 5292, "BSTAR": 0, "MEAN_MOTION_DOT": 7.7e-07, "MEAN_MOTION_DDOT": 0}, "tle": {"line1": "1 37763U 11038A   25360.97351428  .00000077  00000+0  00000+0 0  9996", "line2": "2 37763  54.5847 167.2200 0149664 230.2504 143.4727  1.00276208 52927"}}, "geometry": {"type": "Point", "coordinates": [11.05365186666406, -29.586620256393335]}}, {"type": "Feature", "properties": {"norad_id": 37948, "name": "BEIDOU-2 IGSO-5 (C10)", "group": "beidou", "lat": 44.66771872134886, "lon": 30.898275650307937, "alt_km": 35952.68577306797, "timestamp": "2025-12-27T12:55:14.770301+00:00", "meta": {"OBJECT_NAME": "BEIDOU-2 IGSO-5 (C10)", "OBJECT_ID": "2011-073A", "EPOCH": "2025-12-26T17:38:23.606880", "MEAN_MOTION": 1.00287779, "ECCENTRICITY": 0.01096357, "INCLINATION": 47.994, "RA_OF_ASC_NODE": 273.6869, "ARG_OF_PERICENTER": 222.0715, "MEAN_ANOMALY": 318.062, "EPHEMERIS_TYPE": 0, "CLASSIFICATION_TYPE": "U", "NORAD_CAT_ID": 37948, "ELEMENT_SET_NO": 999, "REV_AT_EPOCH": 5140, "BSTAR": 0, "MEAN_MOTION_DOT": -1.46e-06, "MEAN_MOTION_DDOT": 0}, "tle": {"line1": "1 37948U 11073A   25360.73499545 -.00000146  00000+0  00000+0 0  9995", "line2": "2 37948  47.9940 273.6869 0109635 222.0715 318.0620  1.00287779 51401"}}, "geometry": {"type": "Point", "coordinates": [30.898275650307937, 44.66771872134886]}}, {"type": "Feature", "properties": {"norad_id": 38091, "name": "BEIDOU-2 G5 (C05)", "group": "beidou", "lat": -3.1187842417934277, "lon": -11.086544441191249, "alt_km": 35748.31895395002, "timestamp": "2025-12-27T12:55:14.770327+00:00", "meta": {"OBJECT_NAME": "BEIDOU-2 G5 (C05)", "OBJECT_ID": "2012-008A", "EPOCH": "2025-12-27T03:00:28.131840", "MEAN_MOTION": 1.00270221, "ECCENTRICITY": 0.00132036, "INCLINATION": 3.1427, "RA_OF_ASC_NODE": 70.6556, "ARG_OF_PERICENTER": 232.1204, "MEAN_ANOMALY": 256.9211, "EPHEMERIS_TYPE": 0, "CLASSIFICATION_TYPE": "U", "NORAD_CAT_ID": 38091, "ELEMENT_SET_NO": 999, "REV_AT_EPOCH": 5064, "BSTAR": 0, "MEAN_MOTION_DOT": 7.8e-07, "MEAN_MOTION_DDOT": 0}, "tle": {"line1": "1 38091U 12008A   25361.12532560  .00000078  00000+0  00000+0 0  9996", "line2": "2 38091   3.1427  70.6556 0013203 232.1204 256.9211  1.00270221 50648"}}, "geometry": {"type": "Point", "coordinates": [-11.086544441191249, -3.1187842417934277]}}, {"type": "Feature", "properties": {"norad_id": 38250, "name": "BEIDOU-2 M3 (C11)", "group": "beidou", "lat": 47.07568448944998, "lon": 83.962075944884, "alt_km": 21584.707911355217, "timestamp": "2025-12-27T12:55:14.770354+00:00", "meta": {"OBJECT_NAME": "BEIDOU-2 M3 (C11)", "OBJECT_ID": "2012-018A", "EPOCH": "2025-12-26T06:54:56.796768", "MEAN_MOTION": 1.86230094, "ECCENTRICITY": 0.002406, "INCLINATION": 55.9085, "RA_OF_ASC_NODE": 310.7027, "ARG_OF_PERICENTER": 275.5278, "MEAN_ANOMALY": 84.2034, "EPHEMERIS_TYPE": 0, "CLASSIFICATION_TYPE": "U", "NORAD_CAT_ID": 38250, "ELEMENT_SET_NO": 999, "REV_AT_EPOCH": 9272, "BSTAR": 0, "MEAN_MOTION_DOT": -5.6e-07, "MEAN_MOTION_DDOT": 0}, "tle": {"line1": "1 38250U 12018A   25360.28815737 -.00000056  00000+0  00000+0 0  9997", "line2": "2 38250  55.9085 310.7027 0024060 275.5278  84.2034  1.86230094 92724"}}, "geometry": {"type": "Point", "coordinates": [83.962075944884, 47.07568448944998]}}, {"type": "Feature", "properties": {"norad_id": 38251, "name": "BEIDOU-2 M4 (C12)", "group": "beidou", "lat": 13.624118105270984, "lon": 120.39734005507665, "alt_km": 21545.500577051003, "timestamp": "2025-12-27T12:55:14.770373+00:00", "meta": {"OBJECT_NAME": "BEIDOU-2 M4 (C12)", "OBJECT_ID": "2012-018B", "EPOCH": "2025-12-26T05:17:08.086272", "MEAN_MOTION": 1.86229697, "ECCENTRICITY": 0.0015168, "INCLINATION": 55.8099, "RA_OF_ASC_NODE": 309.9329, "ARG_OF_PERICENTER": 279.7877, "MEAN_ANOMALY": 80.0472, "EPHEMERIS_TYPE": 0, "CLASSIFICATION_TYPE": "U", "NORAD_CAT_ID": 38251, "ELEMENT_SET_NO": 999, "REV_AT_EPOCH": 9272, "BSTAR": 0, "MEAN_MOTION_DOT": -5.5e-07, "MEAN_MOTION_DDOT": 0}, "tle": {"line1": "1 38251U 12018B   25360.22023248 -.00000055  00000+0  00000+0 0  9999", "line2": "2 38251  55.8099 309.9329 0015168 279.7877  80.0472  1.86229697 92721"}}, "geometry": {"type": "Point", "coordinates": [120.39734005507665, 13.624118105270984]}}, {"type": "Feature", "properties": {"norad_id": 38775, "name": "BEIDOU-2 M6 (C14)", "group": "beidou", "lat": -1.9923101487057437, "lon": 67.26743502605606, "alt_km": 21497.603863614957, "timestamp": "2025-12-27T12:55:14.770385+00:00", "meta": {"OBJECT_NAME": "BEIDOU-2 M6 (C14)", "OBJECT_ID": "2012-050B", "EPOCH": "2025-12-24T07:41:05.368128", "MEAN_MOTION": 1.86230801, "ECCENTRICITY": 0.00114872, "INCLINATION": 56.388, "RA_OF_ASC_NODE": 68.6832, "ARG_OF_PERICENTER": 343.1884, "MEAN_ANOMALY": 16.8281, "EPHEMERIS_TYPE": 0, "CLASSIFICATION_TYPE": "U", "NORAD_CAT_ID": 38775, "ELEMENT_SET_NO": 999, "REV_AT_EPOCH": 9005, "BSTAR": 0, "MEAN_MOTION_DOT": -2.4e-07, "MEAN_MOTION_DDOT": 0}, "tle": {"line1": "1 38775U 12050B   25358.32020102 -.00000024  00000+0  00000+0 0  9996", "line2": "2 38775  56.3880  68.6832 0011487 343.1884  16.8281  1.86230801 90056"}}, "geometry": {"type": "Point", "coordinates": [67.26743502605606, -1.9923101487057437]}}]}